NORAD_CAT_ID,OBJECT_NAME,OBJECT_TYPE,EPOCH,MEAN_MOTION,ECCENTRICITY,INCLINATION,RA_OF_ASC_NODE,ARG_OF_PERICENTER,MEAN_ANOMALY,BSTAR,MEAN_MOTION_DOT,MEAN_MOTION_DDOT,TLE_LINE0,TLE_LINE1,TLE_LINE2,SEMIMAJOR_AXIS,PERIOD,APOGEE,PERIGEE,DECAYED
53405.0,STARLINK-4510,PAYLOAD,2023-03-22 21:36:57,15.08817014,8.33e-05,53.2148,304.9516,105.2396,254.8688,0.0010175,0.00015932,0.0,0 STARLINK-4510,1 53405U 22097T   23081.90066255  .00015932  00000-0  10175-2 0  9990,2 53405  53.2148 304.9516 0000833 105.2396 254.8688 15.08817014 35059,6917.951,95.439,540.392,539.239,0.0
53405.0,STARLINK-4510,PAYLOAD,2023-03-22 23:12:20,15.08815069,7.75e-05,53.2149,304.6543,100.3297,259.7782,0.0012795,0.0002012,0.0,0 STARLINK-4510,1 53405U 22097T   23081.96690408  .00020120  00000-0  12795-2 0  9994,2 53405  53.2149 304.6543 0000775 100.3297 259.7782 15.08815069 34571,6917.957,95.439,540.358,539.285,0.0
53405.0,STARLINK-4510,PAYLOAD,2023-03-23 21:27:44,15.08863944,7.86e-05,53.2147,300.4931,118.5723,241.5348,0.0018941,0.00030005,0.0,0 STARLINK-4510,1 53405U 22097T   23082.89426550  .00030005  00000-0  18941-2 0  9994,2 53405  53.2147 300.4931 0000786 118.5723 241.5348 15.08863944 35204,6917.807,95.436,540.216,539.128,0.0
53405.0,STARLINK-4510,PAYLOAD,2023-03-24 00:38:30,15.08875099,7.49e-05,53.2147,299.8965,107.0697,253.0377,0.0019486,0.0003089,0.0,0 STARLINK-4510,1 53405U 22097T   23083.02674202  .00030890  00000-0  19486-2 0  9996,2 53405  53.2147 299.8965 0000749 107.0697 253.0377 15.08875099 34735,6917.773,95.435,540.156,539.12,0.0
53405.0,STARLINK-4510,PAYLOAD,2023-03-24 21:18:29,15.08896809,7.91e-05,53.2148,296.0277,79.6708,280.4373,0.0012021,0.00018925,0.0,0 STARLINK-4510,1 53405U 22097T   23083.88784030  .00018925  00000-0  12021-2 0  9994,2 53405  53.2148 296.0277 0000791  79.6708 280.4373 15.08896809 34861,6917.707,95.434,540.119,539.025,0.0
53405.0,STARLINK-4510,PAYLOAD,2023-03-25 21:09:18,15.08777082,8.48e-05,53.2145,291.5737,83.1425,276.9664,0.00043917,6.697e-05,0.0,0 STARLINK-4510,1 53405U 22097T   23084.88146683  .00006697  00000-0  43917-3 0  9993,2 53405  53.2145 291.5737 0000848  83.1425 276.9664 15.08777082 35010,6918.073,95.442,540.524,539.351,0.0
53405.0,STARLINK-4510,PAYLOAD,2023-03-26 19:24:44,15.08806575,9.78e-05,53.2139,287.4062,66.8249,293.2846,0.00073359,0.00011396,0.0,0 STARLINK-4510,1 53405U 22097T   23085.80885411  .00011396  00000-0  73359-3 0  9990,2 53405  53.2139 287.4062 0000978  66.8249 293.2846 15.08806575 35153,6917.983,95.44,540.524,539.171,0.0
53405.0,STARLINK-4510,PAYLOAD,2023-03-26 21:00:08,15.08812354,0.0001051,53.2141,287.1087,62.4024,297.7074,0.0011956,0.00018777,0.0,0 STARLINK-4510,1 53405U 22097T   23085.87509648  .00018777  00000-0  11956-2 0  9996,2 53405  53.2141 287.1087 0001051  62.4024 297.7074 15.08812354 35655,6917.965,95.439,540.557,539.103,0.0
53405.0,STARLINK-4510,PAYLOAD,2023-03-27 20:50:54,15.08875532,0.0001289,53.215,282.6476,48.3174,311.7928,0.001781,0.00028198,0.0,0 STARLINK-4510,1 53405U 22097T   23086.86868978  .00028198  00000-0  17810-2 0  9993,2 53405  53.2150 282.6476 0001289  48.3174 311.7928 15.08875532 35314,6917.772,95.435,540.528,538.745,0.0
53405.0,STARLINK-4510,PAYLOAD,2023-03-28 12:44:45,15.088848,0.0001377,53.2141,279.6733,55.7807,304.3315,0.0014163,0.00022352,0.0,0 STARLINK-4510,1 53405U 22097T   23087.53107705  .00022352  00000-0  14163-2 0  9996,2 53405  53.2141 279.6733 0001377  55.7807 304.3315 15.08884800 35416,6917.743,95.435,540.561,538.656,0.0
53405.0,STARLINK-4510,PAYLOAD,2023-03-28 19:06:16,15.08892013,0.0001414,53.2143,278.4837,57.3704,302.7425,0.0015284,0.00024155,0.0,0 STARLINK-4510,1 53405U 22097T   23087.79602925  .00024155  00000-0  15284-2 0  9996,2 53405  53.2143 278.4837 0001414  57.3704 302.7425 15.08892013 35943,6917.721,95.434,540.565,538.608,0.0
53405.0,STARLINK-4510,PAYLOAD,2023-03-29 18:57:03,15.0885552,0.000116,53.2147,274.0242,60.8569,299.2539,0.00012456,1.696e-05,0.0,0 STARLINK-4510,1 53405U 22097T   23088.78962125  .00001696  00000-0  12456-3 0  9991,2 53405  53.2147 274.0242 0001160  60.8569 299.2539 15.08855520 36090,6917.833,95.437,540.5,538.895,0.0
53405.0,STARLINK-4510,PAYLOAD,2023-03-29 22:07:49,15.08862068,0.0001163,53.2146,273.4276,62.1121,297.9988,0.00021878,3.198e-05,0.0,0 STARLINK-4510,1 53405U 22097T   23088.92209944  .00003198  00000-0  21878-3 0  9997,2 53405  53.2146 273.4276 0001163  62.1121 297.9988 15.08862068 35627,6917.813,95.436,540.482,538.873,0.0
53405.0,STARLINK-4510,PAYLOAD,2023-03-30 18:47:49,15.08852458,0.0001289,53.2153,269.5638,65.1228,294.9898,3.7915e-05,3.16e-06,0.0,0 STARLINK-4510,1 53405U 22097T   23089.78321679  .00000316  00000-0  37915-4 0  9991,2 53405  53.2153 269.5638 0001289  65.1228 294.9898 15.08852458 35756,6917.842,95.437,540.599,538.816,0.0
53405.0,STARLINK-4510,PAYLOAD,2023-03-31 04:20:09,15.08839417,0.0001142,53.2151,267.7798,80.1183,279.9938,9.1461e-05,1.168e-05,0.0,0 STARLINK-4510,1 53405U 22097T   23090.18066070  .00001168  00000-0  91461-4 0  9990,2 53405  53.2151 267.7798 0001142  80.1183 279.9938 15.08839417 35811,6917.882,95.438,540.537,538.957,0.0
53405.0,STARLINK-4510,PAYLOAD,2023-04-01 12:07:52,15.08823481,0.0001113,53.2155,261.8322,107.7253,252.3861,-0.00018821,-3.28e-05,0.0,0 STARLINK-4510,1 53405U 22097T   23091.50546632 -.00003280  00000-0 -18821-3 0  9991,2 53405  53.2155 261.8322 0001113 107.7253 252.3861 15.08823481 36012,6917.931,95.439,540.566,539.026,0.0
53405.0,STARLINK-4510,PAYLOAD,2023-04-01 18:29:25,15.0882926,0.0001184,53.2159,260.6436,112.8971,247.2146,5.1943e-05,5.39e-06,0.0,0 STARLINK-4510,1 53405U 22097T   23091.77042835  .00000539  00000-0  51943-4 0  9991,2 53405  53.2159 260.6436 0001184 112.8971 247.2146 15.08829260 36549,6917.913,95.438,540.597,538.959,0.0
53405.0,STARLINK-4510,PAYLOAD,2023-04-02 04:01:43,15.08837359,0.0001093,53.2159,258.8592,105.9975,254.1137,0.00040929,6.232e-05,0.0,0 STARLINK-4510,1 53405U 22097T   23092.16787037  .00006232  00000-0  40929-3 0  9992,2 53405  53.2159 258.8592 0001093 105.9975 254.1137 15.08837359 36115,6917.888,95.438,540.51,538.997,0.0
53405.0,STARLINK-4510,PAYLOAD,2023-04-02 10:23:16,15.08839889,0.0001122,53.2161,257.6698,106.6704,253.4412,0.00078896,0.00012291,0.0,0 STARLINK-4510,1 53405U 22097T   23092.43283275  .00012291  00000-0  78896-3 0  9993,2 53405  53.2161 257.6698 0001122 106.6704 253.4412 15.08839889 36649,6917.881,95.438,540.522,538.97,0.0
53405.0,STARLINK-4510,PAYLOAD,2023-04-02 18:20:12,15.08848264,0.0001085,53.2152,256.1827,104.4557,255.6555,0.00081249,0.00012669,0.0,0 STARLINK-4510,1 53405U 22097T   23092.76403170  .00012669  00000-0  81249-3 0  9992,2 53405  53.2152 256.1827 0001085 104.4557 255.6555 15.08848264 36691,6917.855,95.437,540.471,538.97,0.0
53405.0,STARLINK-4510,PAYLOAD,2023-04-03 10:14:03,15.08847196,0.0001134,53.2145,253.2084,98.2024,261.9097,0.00039901,6.069e-05,0.0,0 STARLINK-4510,1 53405U 22097T   23093.42643108  .00006069  00000-0  39901-3 0  9998,2 53405  53.2145 253.2084 0001134  98.2024 261.9097 15.08847196 36302,6917.858,95.437,540.508,538.939,0.0
53405.0,STARLINK-4510,PAYLOAD,2023-04-03 16:35:36,15.08848126,0.0001435,53.2155,252.0201,70.3758,289.7389,0.00036503,5.528e-05,0.0,0 STARLINK-4510,1 53405U 22097T   23093.69139228  .00005528  00000-0  36503-3 0  9994,2 53405  53.2155 252.0201 0001435  70.3758 289.7389 15.08848126 36834,6917.856,95.437,540.713,538.728,0.0
53405.0,STARLINK-4510,PAYLOAD,2023-04-04 03:43:18,15.0884517,0.0001287,53.215,249.9382,73.4835,286.6298,0.00021183,3.085e-05,0.0,0 STARLINK-4510,1 53405U 22097T   23094.15507180  .00003085  00000-0  21183-3 0  9996,2 53405  53.2150 249.9382 0001287  73.4835 286.6298 15.08845170 36414,6917.865,95.437,540.62,538.839,0.0
53405.0,STARLINK-4510,PAYLOAD,2023-04-04 10:04:50,15.08846525,0.0001306,53.2152,248.7484,76.0726,284.0412,0.00019123,2.757e-05,0.0,0 STARLINK-4510,1 53405U 22097T   23094.42003103  .00002757  00000-0  19123-3 0  9998,2 53405  53.2152 248.7484 0001306  76.0726 284.0412 15.08846525 36949,6917.86,95.437,540.629,538.822,0.0
53405.0,STARLINK-4510,PAYLOAD,2023-04-04 19:37:09,15.08853034,0.0001302,53.2151,246.964,75.4662,284.6474,0.00027487,4.091e-05,0.0,0 STARLINK-4510,1 53405U 22097T   23094.81746683  .00004091  00000-0  27487-3 0  9993,2 53405  53.2151 246.9640 0001302  75.4662 284.6474 15.08853034 37005,6917.841,95.437,540.606,538.805,0.0
53405.0,STARLINK-4510,PAYLOAD,2023-04-05 13:06:24,15.08837368,0.0001446,53.2145,243.6919,86.3246,273.7911,3.0549e-05,1.98e-06,0.0,0 STARLINK-4510,1 53405U 22097T   23095.54611382  .00000198  00000-0  30549-4 0  9999,2 53405  53.2145 243.6919 0001446  86.3246 273.7911 15.08837368 37118,6917.888,95.438,540.754,538.753,0.0
53405.0,STARLINK-4510,PAYLOAD,2023-04-05 14:41:47,15.0883738,0.0001435,53.2152,243.3953,83.7556,276.3599,2.7924e-05,1.56e-06,0.0,0 STARLINK-4510,1 53405U 22097T   23095.61235405  .00000156  00000-0  27924-4 0  9992,2 53405  53.2152 243.3953 0001435  83.7556 276.3599 15.08837380 36635,6917.888,95.438,540.746,538.761,0.0
53405.0,STARLINK-4510,PAYLOAD,2023-04-05 16:17:10,15.08838917,0.0001356,53.2154,243.0976,81.9797,278.1349,4.6136e-05,4.46e-06,0.0,0 STARLINK-4510,1 53405U 22097T   23095.67859338  .00000446  00000-0  46136-4 0  9993,2 53405  53.2154 243.0976 0001356  81.9797 278.1349 15.08838917 37134,6917.884,95.438,540.687,538.811,0.0
53405.0,STARLINK-4510,PAYLOAD,2023-04-06 09:46:25,15.08839567,0.0001377,53.2153,239.8262,86.0747,274.0402,4.7851e-05,4.74e-06,0.0,0 STARLINK-4510,1 53405U 22097T   23096.40723380  .00000474  00000-0  47851-4 0  9998,2 53405  53.2153 239.8262 0001377  86.0747 274.0402 15.08839567 37247,6917.882,95.438,540.699,538.794,0.0
53405.0,STARLINK-4510,PAYLOAD,2023-04-06 16:07:57,15.08844187,0.0001375,53.2151,238.6368,87.6734,272.4415,0.00011852,1.599e-05,0.0,0 STARLINK-4510,1 53405U 22097T   23096.67219132  .00001599  00000-0  11852-3 0  9992,2 53405  53.2151 238.6368 0001375  87.6734 272.4415 15.08844187 36799,6917.868,95.437,540.684,538.781,0.0
